IRIDIUM 116             
1 43072U 17083C   23318.15388343  .00000381  00000+0  12887-3 0  9997
2 43072  86.3988 357.4021 0002237  90.5372 269.6080 14.34217078308573
IRIDIUM 130             
1 43073U 17083D   23318.47101107  .00000327  00000+0  10985-3 0  9991
2 43073  86.3996 357.4530 0002169  96.2593 263.8850 14.34217060308561
IRIDIUM 151             
1 43074U 17083E   23318.16656422  .00000400  00000+0  13585-3 0  9994
2 43074  86.3990 357.4331 0002102  87.7333 272.4103 14.34216617308541
IRIDIUM 134             
1 43075U 17083F   23317.50690791  .00000387  00000+0  13098-3 0  9992
2 43075  86.3992 357.7038 0002244  96.4977 263.6474 14.34225997308419
IRIDIUM 137             
1 43076U 17083G   23317.86846795  .00000411  00000+0  13955-3 0  9999
2 43076  86.3992 357.6269 0002393  86.1283 274.0186 14.34217036308530
IRIDIUM 141             
1 43077U 17083H   23318.14119887  .00000361  00000+0  12194-3 0  9995
2 43077  86.3988 357.3969 0001971  91.9092 268.2329 14.34216991308570
IRIDIUM 153             
1 43078U 17083J   23318.09337375  .00000241  00000+0  79140-4 0  9996
2 43078  86.3948 325.8754 0001827  93.6068 266.5336 14.34215828309670
IRIDIUM 131             
1 43079U 17083K   23318.47735984  .00000350  00000+0  11802-3 0  9998
2 43079  86.3993 357.3793 0002040  93.8834 266.2594 14.34214749308555
